OBJECT_NAME,OBJECT_ID,EPOCH,MEAN_MOTION,ECCENTRICITY,INCLINATION,RA_OF_ASC_NODE,ARG_OF_PERICENTER,MEAN_ANOMALY,EPHEMERIS_TYPE,CLASSIFICATION_TYPE,NORAD_CAT_ID,ELEMENT_SET_NO,REV_AT_EPOCH,BSTAR,MEAN_MOTION_DOT,MEAN_MOTION_DDOT
STARLINK-34854,2025-189Q,2026-07-02T04:32:22.093440,15.31709429,.00007294,53.1599,34.4480,134.3621,225.7441,0,U,65337,999,4858,.72675097E-3,.22261E-3,0
STARLINK-34751,2025-189R,2026-07-01T23:30:19.773792,15.31733377,.00011754,53.1603,35.2704,87.5186,272.5950,0,U,65338,999,4861,.76212042E-3,.23383E-3,0
STARLINK-34777,2025-189S,2026-07-01T20:29:08.024640,15.31743988,.00023053,53.1601,35.9084,91.1599,268.9667,0,U,65339,999,4860,.78544219E-3,.24121E-3,0
STARLINK-35020,2025-189T,2026-07-01T21:08:50.643744,15.31736105,.00010076,53.1578,35.3685,92.8139,267.2978,0,U,65340,999,4855,.11643517E-2,.35981E-3,0
STARLINK-35016,2025-189U,2026-07-02T00:00:02.000160,15.34313042,.00006671,53.1590,35.7123,68.4063,130.9472,0,U,65341,999,583,.19812386E-2,.66976E-3,0
STARLINK-35092,2025-189V,2026-07-01T21:15:33.832800,15.31706657,.00010287,53.1575,35.4023,66.3284,293.7825,0,U,65342,999,4851,.10662923E-2,.32876E-3,0
STARLINK-34838,2025-189W,2026-07-02T04:13:46.679808,15.34390421,.00014017,53.1607,35.0671,129.9394,230.1732,0,U,65343,999,4864,.18557647E-2,.62831E-3,0
STARLINK-35088,2025-189X,2026-07-01T23:52:20.587008,15.30245824,.00009485,53.1607,36.0734,110.3295,249.7808,0,U,65344,999,4861,.81976061E-3,.24033E-3,0
STARLINK-34831,2025-189Y,2026-07-01T23:43:46.203744,15.31740479,.00010237,53.1596,35.3258,99.3641,260.7476,0,U,65345,999,4862,.12058047E-2,.37287E-3,0
STARLINK-34873,2025-189Z,2026-07-01T21:00:47.791296,15.30244982,.0000898,53.1586,36.0407,69.5459,290.5638,0,U,65346,999,4860,.11549663E-2,.34052E-3,0
STARLINK-34881,2025-189AA,2026-07-01T21:55:53.412096,15.31733686,.00006068,53.1600,35.5728,87.0936,273.0135,0,U,65347,999,4860,.75848509E-3,.2327E-3,0
STARLINK-34859,2025-189AB,2026-07-02T06:00:02.999808,15.34326455,.00020323,53.1597,34.7059,61.8494,357.8464,0,U,65348,999,587,.11125924E-2,.37315E-3,0
STARLINK-34895,2025-189AC,2026-07-01T23:16:24.623616,15.31743850,.00011549,53.1596,35.2108,91.5582,268.5551,0,U,65349,999,4857,.92682073E-3,.28545E-3,0
STARLINK-34892,2025-189AD,2026-07-01T21:22:17.369184,15.31729059,.00011843,53.1579,35.4266,87.6088,272.5049,0,U,65350,999,4855,.13105529E-2,.40561E-3,0
STARLINK-34244,2025-190A,2026-07-01T18:33:08.407008,15.34416171,.0001225,53.1582,356.7574,81.7013,278.4129,0,U,65351,999,4724,.99183285E-3,.33301E-3,0
STARLINK-34716,2025-190B,2026-07-02T04:15:18.657792,15.30247627,.00017257,53.1585,356.4083,290.7392,69.3424,0,U,65352,999,4728,.10479876E-2,.30854E-3,0
STARLINK-34828,2025-190C,2026-07-02T05:11:23.308800,15.30245066,.00028984,53.1621,355.9356,68.0907,292.0402,0,U,65353,999,4729,.97993517E-3,.28818E-3,0
STARLINK-34785,2025-190D,2026-07-02T04:47:23.740512,15.34409319,.00010711,53.1616,355.1312,259.7740,100.3142,0,U,65354,999,4683,.11673217E-2,.39282E-3,0
STARLINK-34823,2025-190E,2026-07-01T18:37:20.736480,15.30249334,.00014269,53.1578,358.1650,85.6901,274.4262,0,U,65355,999,4722,.10490247E-2,.30887E-3,0
STARLINK-34680,2025-190F,2026-07-02T04:56:20.954976,15.30222012,.00002682,53.1616,356.5799,197.1322,162.9670,0,U,65356,999,4681,.74894437E-3,.21903E-3,0
STARLINK-34860,2025-190G,2026-07-02T05:11:39.444000,15.34460569,.00014723,53.1599,355.2363,83.5396,276.5775,0,U,65357,999,4683,.11526858E-2,.38846E-3,0
STARLINK-34782,2025-190H,2026-07-02T05:03:46.988064,15.30228474,.00004079,53.1618,355.9051,246.5173,113.5785,0,U,65358,999,4729,.96928904E-3,.28484E-3,0
STARLINK-34760,2025-190J,2026-07-01T12:05:55.694976,15.30215774,.00011942,53.1589,359.3116,61.5749,298.5372,0,U,65359,999,4671,.97777056E-3,.28726E-3,0
STARLINK-34826,2025-190K,2026-07-02T04:14:04.259616,15.34430009,.0000733,53.1588,354.9866,266.5989,93.4930,0,U,65360,999,4683,.75987209E-3,.25409E-3,0
STARLINK-34800,2025-190L,2026-07-02T05:02:15.581184,15.30236361,.00016148,53.1624,355.8944,284.4523,75.6299,0,U,65361,999,4682,.11188405E-2,.32962E-3,0
STARLINK-34817,2025-190M,2026-07-01T18:36:09.739008,15.34417185,.0001113,53.1577,356.7434,75.7622,284.3504,0,U,65362,999,4724,.11681396E-2,.3932E-3,0
STARLINK-34797,2025-190N,2026-07-02T05:02:33.869472,15.34410643,.00022951,53.1601,355.1929,94.5341,265.5923,0,U,65363,999,4730,.48028851E-3,.15891E-3,0
STARLINK-34729,2025-190P,2026-07-01T18:41:53.515104,15.30218480,.00015943,53.1589,358.1841,86.6970,273.4213,0,U,65364,999,4764,.84773768E-3,.24847E-3,0
STARLINK-34710,2025-190Q,2026-07-02T04:57:52.185600,15.30228417,.00004521,53.1638,356.5882,235.3966,124.6992,0,U,65365,999,4681,.1163584E-2,.34292E-3,0
STARLINK-34943,2025-190R,2026-07-02T05:05:35.836512,15.34401424,.00027938,53.1589,355.2058,94.6400,265.4922,0,U,65366,999,4683,.39418883E-3,.12966E-3,0
