STARLINK-34854          
1 65337U 25189Q   26183.18914460  .00022261  00000+0  72675-3 0  9994
2 65337  53.1599  34.4480 0000729 134.3621 225.7441 15.31709429 48580
STARLINK-34751          
1 65338U 25189R   26182.97939553  .00023383  00000+0  76212-3 0  9998
2 65338  53.1603  35.2704 0001175  87.5186 272.5950 15.31733377 48614
STARLINK-34777          
1 65339U 25189S   26182.85356510  .00024121  00000+0  78544-3 0  9993
2 65339  53.1601  35.9084 0002305  91.1599 268.9667 15.31743988 48608
STARLINK-35020          
1 65340U 25189T   26182.88114171  .00035981  00000+0  11644-2 0  9996
2 65340  53.1578  35.3685 0001007  92.8139 267.2978 15.31736105 48554
STARLINK-35016          
1 65341U 25189U   26183.00002315  .00066976  00000+0  19812-2 0  9991
2 65341  53.1590  35.7123 0000667  68.4063 130.9472 15.34313042  5839
STARLINK-35092          
1 65342U 25189V   26182.88580825  .00032876  00000+0  10663-2 0  9991
2 65342  53.1575  35.4023 0001028  66.3284 293.7825 15.31706657 48510
STARLINK-34838          
1 65343U 25189W   26183.17623472  .00062831  00000+0  18558-2 0  9996
2 65343  53.1607  35.0671 0001401 129.9394 230.1732 15.34390421 48642
STARLINK-35088          
1 65344U 25189X   26182.99468272  .00024033  00000+0  81976-3 0  9998
2 65344  53.1607  36.0734 0000948 110.3295 249.7808 15.30245824 48612
STARLINK-34831          
1 65345U 25189Y   26182.98872921  .00037287  00000+0  12058-2 0  9997
2 65345  53.1596  35.3258 0001023  99.3641 260.7476 15.31740479 48621
STARLINK-34873          
1 65346U 25189Z   26182.87555314  .00034052  00000+0  11550-2 0  9993
2 65346  53.1586  36.0407 0000898  69.5459 290.5638 15.30244982 48606
STARLINK-34881          
1 65347U 25189AA  26182.91381264  .00023270  00000+0  75849-3 0  9992
2 65347  53.1600  35.5728 0000606  87.0936 273.0135 15.31733686 48609
STARLINK-34859          
1 65348U 25189AB  26183.25003472  .00037315  00000+0  11126-2 0  9995
2 65348  53.1597  34.7059 0002032  61.8494 357.8464 15.34326455  5870
STARLINK-34895          
1 65349U 25189AC  26182.96972944  .00028545  00000+0  92682-3 0  9994
2 65349  53.1596  35.2108 0001154  91.5582 268.5551 15.31743850 48571
STARLINK-34892          
1 65350U 25189AD  26182.89047881  .00040561  00000+0  13106-2 0  9996
2 65350  53.1579  35.4266 0001184  87.6088 272.5049 15.31729059 48551
STARLINK-34244          
1 65351U 25190A   26182.77301397  .00033301  00000+0  99183-3 0  9995
2 65351  53.1582 356.7574 0001225  81.7013 278.4129 15.34416171 47246
STARLINK-34716          
1 65352U 25190B   26183.17729928  .00030854  00000+0  10480-2 0  9997
2 65352  53.1585 356.4083 0001725 290.7392  69.3424 15.30247627 47282
STARLINK-34828          
1 65353U 25190C   26183.21624200  .00028818  00000+0  97994-3 0  9993
2 65353  53.1621 355.9356 0002898  68.0907 292.0402 15.30245066 47298
STARLINK-34785          
1 65354U 25190D   26183.19958033  .00039282  00000+0  11673-2 0  9991
2 65354  53.1616 355.1312 0001071 259.7740 100.3142 15.34409319 46831
STARLINK-34823          
1 65355U 25190E   26182.77593445  .00030887  00000+0  10490-2 0  9995
2 65355  53.1578 358.1650 0001426  85.6901 274.4262 15.30249334 47221
STARLINK-34680          
1 65356U 25190F   26183.20579809  .00021903  00000+0  74894-3 0  9991
2 65356  53.1616 356.5799 0000268 197.1322 162.9670 15.30222012 46812
STARLINK-34860          
1 65357U 25190G   26183.21642875  .00038846  00000+0  11527-2 0  9994
2 65357  53.1599 355.2363 0001472  83.5396 276.5775 15.34460569 46838
STARLINK-34782          
1 65358U 25190H   26183.21096051  .00028484  00000+0  96929-3 0  9991
2 65358  53.1618 355.9051 0000407 246.5173 113.5785 15.30228474 47298
STARLINK-34760          
1 65359U 25190J   26182.50411684  .00028726  00000+0  97777-3 0  9997
2 65359  53.1589 359.3116 0001194  61.5749 298.5372 15.30215774 46715
STARLINK-34826          
1 65360U 25190K   26183.17643819  .00025409  00000+0  75987-3 0  9994
2 65360  53.1588 354.9866 0000733 266.5989  93.4930 15.34430009 46839
STARLINK-34800          
1 65361U 25190L   26183.20990256  .00032962  00000+0  11188-2 0  9993
2 65361  53.1624 355.8944 0001614 284.4523  75.6299 15.30236361 46820
STARLINK-34817          
1 65362U 25190M   26182.77511272  .00039320  00000+0  11681-2 0  9995
2 65362  53.1577 356.7434 0001113  75.7622 284.3504 15.34417185 47241
STARLINK-34797          
1 65363U 25190N   26183.21011423  .00015891  00000+0  48029-3 0  9993
2 65363  53.1601 355.1929 0002295  94.5341 265.5923 15.34410643 47306
STARLINK-34729          
1 65364U 25190P   26182.77909161  .00024847  00000+0  84774-3 0  9997
2 65364  53.1589 358.1841 0001594  86.6970 273.4213 15.30218480 47647
STARLINK-34710          
1 65365U 25190Q   26183.20685400  .00034292  00000+0  11636-2 0  9995
2 65365  53.1638 356.5882 0000452 235.3966 124.6992 15.30228417 46810
STARLINK-34943          
1 65366U 25190R   26183.21222033  .00012966  00000+0  39419-3 0  9990
2 65366  53.1589 355.2058 0002793  94.6400 265.4922 15.34401424 46830
